OBJECT_NAME,OBJECT_ID,EPOCH,MEAN_MOTION,ECCENTRICITY,INCLINATION,RA_OF_ASC_NODE,ARG_OF_PERICENTER,MEAN_ANOMALY,EPHEMERIS_TYPE,CLASSIFICATION_TYPE,NORAD_CAT_ID,ELEMENT_SET_NO,REV_AT_EPOCH,BSTAR,MEAN_MOTION_DOT,MEAN_MOTION_DDOT
FLOCK 4BE-31,2024-149W,2026-07-06T17:09:14.387040,15.44906999,.000322,97.3790,273.3002,173.1498,186.9795,0,U,60488,999,10539,.36473E-3,.1707E-3,0
FLOCK 4BE-20,2024-149X,2026-07-07T11:25:39.925056,15.38664199,.000438,97.3688,270.5986,174.5236,185.6058,0,U,60489,999,10533,.27088E-3,.10268E-3,0
FLOCK 4BE-23,2024-149Y,2026-07-06T16:35:18.288960,15.38208639,.0003826,97.3773,270.1963,180.2589,179.8655,0,U,60490,999,10519,.32872E-3,.12296E-3,0
FLOCK 4BE-17,2024-149AA,2026-07-07T00:54:42.774048,15.40397598,.0003823,97.3763,271.5709,167.7115,192.4225,0,U,60492,999,10531,.31875E-3,.12809E-3,0
NUSAT-50 (NANCY ROMAN),2024-149AB,2026-07-07T04:20:38.011200,15.30223041,.000473,97.3778,269.3014,121.0108,239.1598,0,U,60493,999,10518,.2451E-3,.7093E-4,0
FLOCK 4BE-22,2024-149AC,2026-07-06T16:15:02.102688,15.41793946,.0004095,97.3724,271.4298,178.8391,181.2866,0,U,60494,999,10530,.33702E-3,.14193E-3,0
FLOCK 4BE-34,2024-149AD,2026-07-07T12:55:02.239104,15.41785481,.0004089,97.3776,273.1350,183.4731,176.6489,0,U,60495,999,10546,.27442E-3,.11534E-3,0
TYCHE,2024-149AE,2026-07-07T12:42:56.244096,15.25929919,.0002735,97.3746,266.0737,178.3435,181.7813,0,U,60496,999,10500,.12195E-3,.3056E-4,0
FLOCK 4BE-32,2024-149AF,2026-07-06T17:09:12.089664,15.42872074,.0004199,97.3711,271.8613,184.7187,175.4021,0,U,60497,999,10534,.34086E-3,.14884E-3,0
NUSAT-48 (HENRIETTA LEAVITT),2024-149AG,2026-07-06T04:31:58.795680,15.30170218,.00039678,97.3910,268.5926,187.0344,173.0842,0,U,60498,999,10504,.32447524E-3,.94E-4,0
NUSAT-49 (KLARA DAN VON NEUMANN),2024-149AJ,2026-07-07T11:21:58.641696,15.30295166,.0001712,97.3771,269.6243,185.7883,174.3338,0,U,60500,999,10523,.20327E-3,.588E-4,0
FLOCK 4BE-11,2024-149AK,2026-07-07T00:33:24.676128,15.43670323,.0004304,97.3689,272.4226,181.7733,178.3500,0,U,60501,999,10541,.30933E-3,.13866E-3,0
YAM-7,2024-149AN,2026-07-07T04:12:32.564160,15.32106048,.0002872,97.3774,268.3469,194.9541,165.1616,0,U,60504,999,10511,.18361E-3,.5613E-4,0
FLOCK 4BE-24,2024-149AP,2026-07-06T16:24:51.361056,15.43858185,.0004399,97.3708,272.3427,196.4371,163.6735,0,U,60505,999,10537,.3734E-3,.16869E-3,0
LUR-1,2024-149AQ,2026-07-06T17:31:51.192768,15.30373104,.0003158,97.3729,266.4197,215.3088,144.7944,0,U,60506,999,10496,.183E-3,.5299E-4,0
TANAGER-1,2024-149AR,2026-07-07T02:41:45.032928,15.44037809,.0002809,97.2319,282.2963,175.8028,184.3245,0,U,60507,999,10611,.93231E-5,.341E-5,0
EAGLEEYE,2024-149AS,2026-07-06T06:11:16.874016,15.75020003,.00049986,97.3713,281.7014,202.6773,157.4271,0,U,60508,999,10593,.84974082E-3,.12766E-2,0
FLOCK 4BE-29,2024-149AT,2026-07-06T05:28:44.370048,15.44905523,.0002765,97.3804,273.3958,199.1193,160.9952,0,U,60509,999,10535,.84812961E-3,.39923E-3,0
TRANSPORTER-11 OBJECT AU,2024-149AU,2026-07-07T03:06:30.060576,15.40812096,.0003469,97.3720,272.0162,194.5647,165.5500,0,U,60510,999,10538,.29083E-3,.11839E-3,0
FLOCK 4BE-2,2024-149AV,2026-07-07T03:38:51.044352,15.55133860,.0004954,97.3822,276.0489,194.8620,165.2489,0,U,60511,999,10560,.73541E-3,.49698E-3,0
FLOCK 4BE-13,2024-149AW,2026-07-07T11:10:13.964160,15.42462628,.0004483,97.3713,273.0946,179.2541,180.8713,0,U,60512,999,10549,.25139E-3,.108E-3,0
FLOCK 4BE-27,2024-149AX,2026-07-07T11:21:23.278176,15.34820900,.0003207,97.3819,270.3385,209.8407,150.2654,0,U,60513,999,10525,.20096E-3,.6705E-4,0
FLOCK 4BE-9,2024-149AY,2026-07-06T16:47:20.169600,15.41414253,.0002895,97.3784,272.1676,196.3338,163.7816,0,U,60514,999,10532,.32894E-3,.13674E-3,0
FLOCK 4BE-6,2024-149BA,2026-07-06T16:17:49.728192,15.40148027,.0003508,97.3782,271.4680,200.5229,159.5876,0,U,60516,999,10527,.32059E-3,.12777E-3,0
FLOCK 4BE-14,2024-149BB,2026-07-06T17:01:21.648576,15.41655927,.0004496,97.3686,271.6526,205.4810,154.6216,0,U,60517,999,10533,.32234E-3,.13508E-3,0
FLOCK 4BE-1,2024-149BC,2026-07-06T04:27:49.556736,15.43283335,.00041566,97.3772,272.4710,206.1703,153.9335,0,U,60518,999,10530,.4497566E-3,.19953E-3,0
FLOCK 4BE-28,2024-149BD,2026-07-06T05:40:18.369408,15.45698118,.0004188,97.3771,273.3050,219.3554,140.7391,0,U,60519,999,10538,.52926E-3,.25518E-3,0
IPERDRONE.0,2024-149BE,2026-07-06T06:13:24.235392,15.69808668,.00042223,97.3767,281.4527,187.0911,173.0292,0,U,60520,999,10590,.77662499E-3,.93238E-3,0
